0 CZ-4 DEB
1 26154U 99057AQ  13282.38889130  .00000378  00000-0  36503-3 0  2816
2 26154 099.4611 073.7520 0537778 011.4719 349.8117 13.34708631659520
0 CZ-4 DEB
1 26154U 99057AQ  13283.66316157  .00000343  00000-0  33479-3 0  2824
2 26154 099.4611 074.9374 0537730 008.3503 352.6148 13.34709805659692
0 CZ-4 DEB
1 26154U 99057AQ  13286.36161092  .00000309  00000-0  30545-3 0  2845
2 26154 099.4613 077.4477 0537659 001.7329 358.5508 13.34711268660041
0 CZ-4 DEB
1 26154U 99057AQ  13287.41100627  .00000352  00000-0  34368-3 0  2855
2 26154 099.4614 078.4239 0537630 359.1602 000.8576 13.34712056660185
0 CZ-4 DEB
1 26154U 99057AQ  13289.35988198  .00000372  00000-0  36159-3 0  2860
2 26154 099.4617 080.2370 0537595 354.3808 005.1440 13.34714400660442
0 CZ-4 DEB
1 26154U 99057AQ  13290.40927534  .00000421  00000-0  40383-3 0  2875
2 26154 099.4619 081.2133 0537555 351.8088 007.4521 13.34715090660586
0 CZ-4 DEB
1 26154U 99057AQ  13291.90840834  .00000444  00000-0  42483-3 0  2887
2 26154 099.4620 082.6082 0537497 348.1354 010.7513 13.34716028660788
0 CZ-4 DEB
1 26154U 99057AQ  13292.95780136  .00000463  00000-0  44151-3 0  2897
2 26154 099.4621 083.5846 0537443 345.5643 013.0633 13.34716982660924
0 CZ-4 DEB
1 26154U 99057AQ  13294.83171667  .00000510  00000-0  48277-3 0  2907
2 26154 099.4620 085.3284 0537384 340.9684 017.2027 13.34719102661175
0 CZ-4 DEB
1 26154U 99057AQ  13295.88110931  .00000514  00000-0  48680-3 0  2913
2 26154 099.4619 086.3048 0537361 338.3950 019.5253 13.34720296661312
